satname,norad_id,inclination_deg,eccentricity,mean_motion_rev_per_day,perigee_km,apogee_km,l1,l2
STARLINK-1460,45676,53.1577,0.0001565,15.29357078,476.66009481623223,478.8059821382749,1 45676U 20035V   26073.88846728  .00004133  00000+0  15547-3 0  9992,2 45676  53.1577  40.7872 0001565 107.7684 252.3487 15.29357078319513
STARLINK-1392,45677,53.1569,0.0001606,15.29367108,476.6020154396938,478.804111268043,1 45677U 20035W   26073.62358143  .00003215  00000+0  12368-3 0  9992,2 45677  53.1569  41.8724 0001606  97.6998 262.4185 15.29367108319516
STARLINK-1394,45679,53.0488,0.000328,15.50848665,412.01905647070635,416.4748603474227,1 45679U 20035Y   26073.83855197  .00069610  00000+0  11822-2 0  9992,2 45679  53.0488  11.8446 0003280 141.9005 218.2236 15.50848665319957
STARLINK-1402,45685,53.049,0.0001442,15.45720057,428.281521433184,430.2447756360216,1 45685U 20035AE  26073.50542222  .00098813  00000+0  19956-2 0  9998,2 45685  53.0490   0.4486 0001442 197.9182 162.1774 15.45720057320099
STARLINK-1404,45686,53.1629,0.0001436,15.30430728,473.542201310408,475.51028619401313,1 45686U 20035AF  26073.85556079  .00038114  00000+0  12832-2 0  9996,2 45686  53.1629  25.7011 0001436  89.6900 270.4265 15.30430728319764
STARLINK-1413,45689,53.1616,0.0001315,15.30193018,474.33469795355995,476.13713503059626,1 45689U 20035AJ  26073.14358715  .00000816  00000+0  39687-4 0  9995,2 45689  53.1616  28.8889 0001315 102.7741 257.3407 15.30193018319575
STARLINK-1417,45693,53.0515,0.0001613,15.12905105,526.231965239017,528.4596739966264,1 45693U 20035AN  26073.61921314  .00037692  00000+0  21217-2 0  9993,2 45693  53.0515  31.9627 0001613 250.7213 109.3604 15.12905105319642
STARLINK-1420,45695,53.0534,0.0004576,15.54737364,399.8131773401192,406.019197217116,1 45695U 20035AQ  26073.75804109  .00112163  00000+0  16425-2 0  9994,2 45695  53.0534 357.9448 0004576 132.2165 227.9234 15.54737364320147
STARLINK-1422,45696,53.1625,0.0001281,15.30201959,474.33130655386776,476.08713385548435,1 45696U 20035AR  26073.86941389  .00001102  00000+0  49340-4 0  9993,2 45696  53.1625  25.5191 0001281 102.2226 257.8919 15.30201959319766
STARLINK-1351,45697,53.0531,0.0003869,15.53477321,403.95747634277996,409.2074922797401,1 45697U 20035AS  26073.93200799  .00098299  00000+0  15107-2 0  9990,2 45697  53.0531 356.3611 0003869 150.6189 209.5039 15.53477321320181
STARLINK-1398,45699,53.0322,0.0004581,16.00418212,270.2127078455105,276.3067175136666,1 45699U 20035AU  26073.89543236  .00431216  91319-4  80636-3 0  9991,2 45699  53.0322 272.3645 0004581 251.1663 108.8869 16.00418212321350
STARLINK-1400,45700,53.0511,0.0007918,15.51498699,406.97290763887395,417.72632224229346,1 45700U 20035AV  26073.90740096  .00083431  00000+0  13793-2 0  9992,2 45700  53.0511 357.8831 0007918 116.0821 244.1004 15.51498699320155
STARLINK-1403,45701,53.1522,0.0001976,15.29186174,476.8890225675168,479.59866427683664,1 45701U 20035AW  26074.00002315  .00086243  00000+0  29819-2 0  9990,2 45701  53.1522  11.8815 0001976  85.1115 146.0954 15.29186174  5890
STARLINK-1407,45703,53.0325,0.0009335,15.61209119,377.85072555852094,390.475940280081,1 45703U 20035AY  26073.88620237  .00125965  00000+0  14416-2 0  9998,2 45703  53.0325 290.4217 0009335 125.8634 234.3247 15.61209119321100
STARLINK-1411,45706,53.0442,0.0004647,15.6326236,375.10112644791934,381.3805039893841,1 45706U 20035BB  26073.93781242  .00119589  00000+0  12668-2 0  9993,2 45706  53.0442 315.7669 0004647 154.4046 205.7199 15.63262360320747
STARLINK-1423,45710,53.0508,0.0007727,15.53981919,399.8722629820986,410.3550985841812,1 45710U 20035BF  26073.93168987  .00100503  00000+0  15147-2 0  9994,2 45710  53.0508 356.7303 0007727 131.5784 228.5890 15.53981919320166
STARLINK-1433,45711,53.0505,0.00076,15.559571,394.22097727895743,404.52279078268475,1 45711U 20035BG  26073.94982280  .00104259  00000+0  14607-2 0  9998,2 45711  53.0505 355.6104 0007600 123.3903 236.7836 15.55957100320183
STARLINK-1434,45712,53.0527,0.0005295,15.27336725,480.1442617911189,487.4110294008051,1 45712U 20035BH  26073.93543016  .00043712  00000+0  16141-2 0  9999,2 45712  53.0527 355.7280 0005295 113.3867 246.7689 15.27336725320191
STARLINK-1465,45731,53.0504,0.0003087,15.50866872,412.0970045799004,416.29058961402825,1 45731U 20038B   26073.60848203  .00088793  00000+0  15013-2 0  9998,2 45731  53.0504 199.5434 0003087 300.2440  59.8262 15.50866872317141
STARLINK-1471,45735,53.046,8.76e-05,15.49167416,418.5649605167682,419.75584702190827,1 45735U 20038F   26073.42073967  .00028749  00000+0  52560-3 0  9993,2 45735  53.0460 119.3540 0000876 315.4411  44.6526 15.49167416318268
STARLINK-1480,45741,53.0506,0.0006082,15.47939836,418.61731834017064,426.88992169035737,1 45741U 20038M   26073.70254612  .00034736  00000+0  66021-3 0  9999,2 45741  53.0506 193.2785 0006082 197.8294 162.2501 15.47939836317253
STARLINK-1500,45744,53.0354,0.0001993,15.35141012,459.13874167238555,461.86462305117584,1 45744U 20038Q   26073.95164191  .00033361  00000+0  97093-3 0  9997,2 45744  53.0354 168.0621 0001993 295.5930  64.4866 15.35141012317621
STARLINK-1504,45746,53.0228,2.31e-05,15.53543985,406.2316680214117,406.5451130944557,1 45746U 20038S   26073.83383223  .00038496  00000+0  59922-3 0  9998,2 45746  53.0228 117.3607 0000231  14.5799 345.5217 15.53543985318315
STARLINK-1506,45747,53.0744,0.0002376,15.26368503,485.04807279153283,488.31023342748995,1 45747U 20038T   26073.70233279  .00013823  00000+0  53678-3 0  9999,2 45747  53.0744 179.1761 0002376 261.7280  98.3449 15.26368503317454
STARLINK-1464,45751,53.0511,0.0002666,15.4465369,430.58013759419464,434.21151369682866,1 45751U 20038X   26073.61483861  .00044075  00000+0  93456-3 0  9999,2 45751  53.0511 181.1902 0002666 298.9524  61.1214 15.44653690317414
STARLINK-1477,45754,53.0479,0.0001437,15.14748501,520.7506824824568,522.7337077631355,1 45754U 20038AA  26073.71442947  .00037624  00000+0  20113-2 0  9994,2 45754  53.0479 190.1208 0001437  21.0666 339.0386 15.14748501317292
STARLINK-1478,45755,53.0503,0.0003395,15.56106629,396.636885116176,401.238518838818,1 45755U 20038AB  26073.51607171  .00096843  00000+0  13522-2 0  9999,2 45755  53.0503 174.5347 0003395 281.4626  78.6003 15.56106629317482
STARLINK-1484,45756,52.9956,0.0003907,16.1170429,239.5855412814517,244.7586508091017,1 45756U 20038AC  26074.11690595  .00991851  60505-3  92233-3 0  9999,2 45756  52.9956  28.1804 0003907 119.6452 240.4971 16.11704290319578
STARLINK-1493,45759,53.0518,0.0002882,15.51231128,411.17320740374,415.0876939623131,1 45759U 20038AF  26073.79911287  .00092490  00000+0  15426-2 0  9998,2 45759  53.0518 179.9584 0002882  26.8701 333.2456 15.51231128317434
STARLINK-1494,45760,53.0472,0.0006186,15.74728065,341.2459322431141,349.56429854828093,1 45760U 20038AG  26073.32210888  .00111160  00000+0  73520-3 0  9994,2 45760  53.0472 128.5721 0006186  18.6020 341.5223 15.74728065318129
STARLINK-1502,45764,53.0504,0.0003956,15.48086072,419.63506452462116,425.01559031807756,1 45764U 20038AL  26074.00002315  .00058209  00000+0  10922-2 0  9998,2 45764  53.0504 180.6540 0003956  13.7988  87.1111 15.48086072  5845
STARLINK-1470,45772,53.0448,0.0002095,15.28490273,478.88791626449074,481.7616117436073,1 45772U 20038AU  26073.77511221  .00028115  00000+0  10092-2 0  9992,2 45772  53.0448 150.7050 0002095  21.7365 338.3722 15.28490273317852
STARLINK-1482,45773,53.162,0.0001492,15.30365351,473.6989591174388,475.74385206566785,1 45773U 20038AV  26073.64483492  .00013020  00000+0  44866-3 0  9993,2 45773  53.1620 167.9987 0001492 112.9737 247.1421 15.30365351317608
STARLINK-1496,45780,53.0509,0.0002491,15.49202323,417.36511647532643,420.7514791727026,1 45780U 20038BC  26073.93349919  .00084363  00000+0  15140-2 0  9998,2 45780  53.0509 152.7094 0002491 244.3400 115.7350 15.49202323317823
STARLINK-1513,45786,53.1626,0.0001421,15.30197233,474.24946869195537,476.1971936980808,1 45786U 20038BJ  26073.52379388  .00002108  00000+0  83281-4 0  9992,2 45786  53.1626 168.6944 0001421  94.0230 266.0933 15.30197233317586
STARLINK-1522,46027,53.0637,0.0001898,15.0927287,537.1078321560781,539.7333574190598,1 46027U 20055A   26073.38360815  .00025316  00000+0  15841-2 0  9990,2 46027  53.0637 105.3226 0001898  63.9437 296.1749 15.09272870309597
STARLINK-1523,46028,53.1317,0.0001069,15.24286441,492.1944330402948,493.66346694040294,1 46028U 20055B   26074.00002315  .01002261  00000+0  37233-1 0  9992,2 46028  53.1317 101.8904 0001069  60.4178 332.6808 15.24286441  5740
STARLINK-1526,46029,53.1319,0.0001789,15.24341169,491.53528474108043,493.9936932938508,1 46029U 20055C   26074.00002315  .00956982  00000+0  35634-1 0  9993,2 46029  53.1319 101.8537 0001789  77.1533  16.2182 15.24341169  5743
STARLINK-1555,46032,53.1332,0.0002078,15.24547086,490.7181392915354,493.5734288165886,1 46032U 20055F   26074.00002315  .01064295  00000+0  39566-1 0  9993,2 46032  53.1332 101.9404 0002078  85.0694  40.1399 15.24547086  5791
STARLINK-1556,46033,53.1369,0.0001306,15.25417878,488.6339955501144,490.42783040898576,1 46033U 20055G   26074.00002315  .01057829  00000+0  38334-1 0  9991,2 46033  53.1369 101.8419 0001306  94.3680 184.8231 15.25417878  5841
STARLINK-1557,46034,53.1403,0.0001224,15.26035225,486.8382338625106,488.51898552376224,1 46034U 20055H   26074.00002315  .01026169  00000+0  36112-1 0  9997,2 46034  53.1403 101.7534 0001224  91.7486 216.0118 15.26035225  5690
STARLINK-1558,46035,53.1372,0.0001393,15.25584082,488.0755108193471,489.98870413269015,1 46035U 20055J   26074.00002315  .01154340  00000+0  41333-1 0  9992,2 46035  53.1372 101.9344 0001393 105.2014  63.4647 15.25584082  5793
STARLINK-1560,46036,53.1557,0.0001711,15.29341143,476.60761413076307,478.95370915457625,1 46036U 20055K   26074.00002315  .00033989  00000+0  11853-2 0  9992,2 46036  53.1557 101.8224 0001711  79.5718 230.3698 15.29341143  5898
